{
  "type": "FeatureCollection",
  "features": [
    {
      "type": "Feature",
      "properties": {
        "norad_id": 30859,
        "name": "FENGYUN 1C DEB",
        "group": "fengyun-1c-debris",
        "lat": -7.645157198772324,
        "lon": -150.47066779671107,
        "alt_km": 749.9128774801093,
        "timestamp": "2025-12-06T22:38:43.007383+00:00",
        "meta_object_name": "FENGYUN 1C DEB",
        "meta_object_id": "1999-025AWV",
        "meta_epoch": "2025-12-06T13:29:50.737056",
        "meta_mean_motion": 14.48878812,
        "meta_eccentricity": 0.00314804,
        "meta_inclination": 98.9212,
        "meta_ra_of_asc_node": 30.3349,
        "meta_arg_of_pericenter": 50.1447,
        "meta_mean_anomaly": 310.2506,
        "meta_ephemeris_type": 0,
        "meta_classification_type": "U",
        "meta_norad_cat_id": 30859,
        "meta_element_set_no": 999,
        "meta_rev_at_epoch": 96945,
        "meta_bstar": 0.0048992464,
        "meta_mean_motion_dot": 0.00018648,
        "meta_mean_motion_ddot": 0,
        "tle_line1": "1 30859U 99025AWV 25340.56239279  .00018648  00000+0  48992-2 0  9997",
        "tle_line2": "2 30859  98.9212  30.3349 0031480  50.1447 310.2506 14.48878812969458"
      },
      "geometry": {
        "type": "Point",
        "coordinates": [
          -150.47066779671107,
          -7.645157198772324
        ]
      }
    },
    {
      "type": "Feature",
      "properties": {
        "norad_id": 30860,
        "name": "FENGYUN 1C DEB",
        "group": "fengyun-1c-debris",
        "lat": 8.097097367108407,
        "lon": -124.40727483240099,
        "alt_km": 784.3332822185666,
        "timestamp": "2025-12-06T22:38:43.007393+00:00",
        "meta_object_name": "FENGYUN 1C DEB",
        "meta_object_id": "1999-025AWW",
        "meta_epoch": "2025-12-05T10:27:44.695872",
        "meta_mean_motion": 14.25410109,
        "meta_eccentricity": 0.00399994,
        "meta_inclination": 98.9058,
        "meta_ra_of_asc_node": 52.7842,
        "meta_arg_of_pericenter": 207.6777,
        "meta_mean_anomaly": 152.2273,
        "meta_ephemeris_type": 0,
        "meta_classification_type": "U",
        "meta_norad_cat_id": 30860,
        "meta_element_set_no": 999,
        "meta_rev_at_epoch": 96412,
        "meta_bstar": 0.0033760813,
        "meta_mean_motion_dot": 7.994e-05,
        "meta_mean_motion_ddot": 0,
        "tle_line1": "1 30860U 99025AWW 25339.43593398  .00007994  00000+0  33761-2 0  9998",
        "tle_line2": "2 30860  98.9058  52.7842 0039999 207.6777 152.2273 14.25410109964122"
      },
      "geometry": {
        "type": "Point",
        "coordinates": [
          -124.40727483240099,
          8.097097367108407
        ]
      }
    },
    {
      "type": "Feature",
      "properties": {
        "norad_id": 30862,
        "name": "FENGYUN 1C DEB",
        "group": "fengyun-1c-debris",
        "lat": -31.62595869883563,
        "lon": 76.98754971159742,
        "alt_km": 787.6412553673927,
        "timestamp": "2025-12-06T22:38:43.007403+00:00",
        "meta_object_name": "FENGYUN 1C DEB",
        "meta_object_id": "1999-025AWY",
        "meta_epoch": "2025-12-06T12:52:48.459072",
        "meta_mean_motion": 14.42852417,
        "meta_eccentricity": 0.00536637,
        "meta_inclination": 98.9602,
        "meta_ra_of_asc_node": 70.9843,
        "meta_arg_of_pericenter": 180.6391,
        "meta_mean_anomaly": 194.8261,
        "meta_ephemeris_type": 0,
        "meta_classification_type": "U",
        "meta_norad_cat_id": 30862,
        "meta_element_set_no": 999,
        "meta_rev_at_epoch": 96630,
        "meta_bstar": 0.0060835906,
        "meta_mean_motion_dot": 0.00020677,
        "meta_mean_motion_ddot": 0,
        "tle_line1": "1 30862U 99025AWY 25340.53667198  .00020677  00000+0  60836-2 0  9999",
        "tle_line2": "2 30862  98.9602  70.9843 0053663 180.6391 194.8261 14.42852417966300"
      },
      "geometry": {
        "type": "Point",
        "coordinates": [
          76.98754971159742,
          -31.62595869883563
        ]
      }
    },
    {
      "type": "Feature",
      "properties": {
        "norad_id": 30863,
        "name": "FENGYUN 1C DEB",
        "group": "fengyun-1c-debris",
        "lat": 49.37640540503924,
        "lon": 4.169547756082234,
        "alt_km": 1936.765250544574,
        "timestamp": "2025-12-06T22:38:43.007413+00:00",
        "meta_object_name": "FENGYUN 1C DEB",
        "meta_object_id": "1999-025AWZ",
        "meta_epoch": "2025-12-05T08:13:20.266752",
        "meta_mean_motion": 12.40462161,
        "meta_eccentricity": 0.08784359,
        "meta_inclination": 99.1209,
        "meta_ra_of_asc_node": 172.1545,
        "meta_arg_of_pericenter": 265.9824,
        "meta_mean_anomaly": 285.4303,
        "meta_ephemeris_type": 0,
        "meta_classification_type": "U",
        "meta_norad_cat_id": 30863,
        "meta_element_set_no": 999,
        "meta_rev_at_epoch": 59648,
        "meta_bstar": 0.0063870204,
        "meta_mean_motion_dot": 3.332e-05,
        "meta_mean_motion_ddot": 0,
        "tle_line1": "1 30863U 99025AWZ 25339.34259568  .00003332  00000+0  63870-2 0  9995",
        "tle_line2": "2 30863  99.1209 172.1545 0878435 265.9824 285.4303 12.40462161596482"
      },
      "geometry": {
        "type": "Point",
        "coordinates": [
          4.169547756082234,
          49.37640540503924
        ]
      }
    },
    {
      "type": "Feature",
      "properties": {
        "norad_id": 30867,
        "name": "FENGYUN 1C DEB",
        "group": "fengyun-1c-debris",
        "lat": -5.583483242682142,
        "lon": 67.56664297444094,
        "alt_km": 841.4548822938123,
        "timestamp": "2025-12-06T22:38:43.007423+00:00",
        "meta_object_name": "FENGYUN 1C DEB",
        "meta_object_id": "1999-025AXD",
        "meta_epoch": "2025-12-06T05:40:03.205344",
        "meta_mean_motion": 14.27873836,
        "meta_eccentricity": 0.00546829,
        "meta_inclination": 97.877,
        "meta_ra_of_asc_node": 247.7039,
        "meta_arg_of_pericenter": 13.9753,
        "meta_mean_anomaly": 137.2609,
        "meta_ephemeris_type": 0,
        "meta_classification_type": "U",
        "meta_norad_cat_id": 30867,
        "meta_element_set_no": 999,
        "meta_rev_at_epoch": 96444,
        "meta_bstar": 0.0040029382,
        "meta_mean_motion_dot": 0.0001004,
        "meta_mean_motion_ddot": 0,
        "tle_line1": "1 30867U 99025AXD 25340.23614821  .00010040  00000+0  40029-2 0  9991",
        "tle_line2": "2 30867  97.8770 247.7039 0054682  13.9753 137.2609 14.27873836964443"
      },
      "geometry": {
        "type": "Point",
        "coordinates": [
          67.56664297444094,
          -5.583483242682142
        ]
      }
    },
    {
      "type": "Feature",
      "properties": {
        "norad_id": 30868,
        "name": "FENGYUN 1C DEB",
        "group": "fengyun-1c-debris",
        "lat": 12.300286973619011,
        "lon": -142.3792487279476,
        "alt_km": 933.9992563040851,
        "timestamp": "2025-12-06T22:38:43.007433+00:00",
        "meta_object_name": "FENGYUN 1C DEB",
        "meta_object_id": "1999-025AXE",
        "meta_epoch": "2025-12-06T11:17:15.254016",
        "meta_mean_motion": 14.11115171,
        "meta_eccentricity": 0.01349036,
        "meta_inclination": 98.2638,
        "meta_ra_of_asc_node": 219.0009,
        "meta_arg_of_pericenter": 231.1021,
        "meta_mean_anomaly": 257.8038,
        "meta_ephemeris_type": 0,
        "meta_classification_type": "U",
        "meta_norad_cat_id": 30868,
        "meta_element_set_no": 999,
        "meta_rev_at_epoch": 96622,
        "meta_bstar": 0.00029074397,
        "meta_mean_motion_dot": 5.3e-06,
        "meta_mean_motion_ddot": 0,
        "tle_line1": "1 30868U 99025AXE 25340.47031544  .00000530  00000+0  29074-3 0  9994",
        "tle_line2": "2 30868  98.2638 219.0009 0134903 231.1021 257.8038 14.11115171966225"
      },
      "geometry": {
        "type": "Point",
        "coordinates": [
          -142.3792487279476,
          12.300286973619011
        ]
      }
    },
    {
      "type": "Feature",
      "properties": {
        "norad_id": 30872,
        "name": "FENGYUN 1C DEB",
        "group": "fengyun-1c-debris",
        "lat": -49.54786338802218,
        "lon": 43.84682891910481,
        "alt_km": 770.4791635639031,
        "timestamp": "2025-12-06T22:38:43.007443+00:00",
        "meta_object_name": "FENGYUN 1C DEB",
        "meta_object_id": "1999-025AXJ",
        "meta_epoch": "2025-12-04T23:03:53.177760",
        "meta_mean_motion": 14.39362786,
        "meta_eccentricity": 0.0041181,
        "meta_inclination": 99.194,
        "meta_ra_of_asc_node": 30.7721,
        "meta_arg_of_pericenter": 51.7666,
        "meta_mean_anomaly": 71.2387,
        "meta_ephemeris_type": 0,
        "meta_classification_type": "U",
        "meta_norad_cat_id": 30872,
        "meta_element_set_no": 999,
        "meta_rev_at_epoch": 97624,
        "meta_bstar": 0.0017947,
        "meta_mean_motion_dot": 5.59e-05,
        "meta_mean_motion_ddot": 0,
        "tle_line1": "1 30872U 99025AXJ 25338.96103215  .00005590  00000+0  17947-2 0  9991",
        "tle_line2": "2 30872  99.1940  30.7721 0041181  51.7666  71.2387 14.39362786976245"
      },
      "geometry": {
        "type": "Point",
        "coordinates": [
          43.84682891910481,
          -49.54786338802218
        ]
      }
    }
  ]
}